[{"OBJECT_NAME":"HBTSS-SV1","OBJECT_ID":"2024-028F","EPOCH":"2026-03-09T23:05:25.846944","MEAN_MOTION":14.81553365,"ECCENTRICITY":0.00119303,"INCLINATION":39.9894,"RA_OF_ASC_NODE":316.1636,"ARG_OF_PERICENTER":238.589,"MEAN_ANOMALY":121.3729,"EPHEMERIS_TYPE":0,"CLASSIFICATION_TYPE":"U","NORAD_CAT_ID":58960,"ELEMENT_SET_NO":999,"REV_AT_EPOCH":9236,"BSTAR":0.00047571396,"MEAN_MOTION_DOT":3.673e-5,"MEAN_MOTION_DDOT":0},{"OBJECT_NAME":"COSMOS 2251 DEB","OBJECT_ID":"1993-036ANE","EPOCH":"2026-03-09T06:19:04.664352","MEAN_MOTION":14.75774332,"ECCENTRICITY":0.00168725,"INCLINATION":74.0215,"RA_OF_ASC_NODE":10.229,"ARG_OF_PERICENTER":65.5986,"MEAN_ANOMALY":294.6946,"EPHEMERIS_TYPE":0,"CLASSIFICATION_TYPE":"U","NORAD_CAT_ID":35611,"ELEMENT_SET_NO":999,"REV_AT_EPOCH":88565,"BSTAR":0.0027084282,"MEAN_MOTION_DOT":0.00018615,"MEAN_MOTION_DDOT":0}]
